EUTELSAT 117 WEST A     
1 39122U 13012A   15195.48297882 -.00000033  00000-0  00000+0 0  9999
2 39122   0.0116 310.2072 0002348 168.4845 230.3810  1.00271111  8453
ANIK G1                 
1 39127U 13014A   15194.35962852 -.00000094  00000-0  00000+0 0  9994
2 39127   0.0139 339.2733 0002400 101.5396 232.2365  1.00269895  8234
CHINASAT 11 (ZX 11)     
1 39157U 13020A   15195.00674404 -.00000311  00000-0  00000+0 0  9992
2 39157   0.0205 256.5405 0001404 293.8035 201.6120  1.00269140  8137
EUTELSAT 7B             
1 39163U 13022A   15195.03372938  .00000028  00000-0  00000+0 0  9995
2 39163   0.0335 358.5670 0003115  36.3158 275.8048  1.00271509  7977
SES-6                   
1 39172U 13026A   15195.41897370 -.00000281  00000-0  00000+0 0  9995
2 39172   0.0166   7.1169 0001954 107.2903 287.8639  1.00275318  7717
IRNSS-1A                
1 39199U 13034A   15195.83823001  .00000077  00000-0  00000+0 0  9991
2 39199  27.7971 127.5087 0018362 187.1335 334.4754  1.00275322  7632
ALPHASAT                
1 39215U 13038A   15194.96184715  .00000119  00000-0  00000+0 0  9996
2 39215   0.8915  33.4626 0001724  83.5677 185.5735  1.00274444  7242
INSAT-3D                
1 39216U 13038B   15194.86496124 -.00000176  00000-0  00000+0 0  9990
2 39216   0.0104  47.5798 0000618 103.4883 173.7934  1.00272407  7273
EUTELSAT 25B            
1 39233U 13044A   15193.88957831  .00000124  00000-0  00000+0 0  9996
2 39233   0.0462   0.6220 0001587 111.9935 163.5828  1.00274568  6871
GSAT-7                  
1 39234U 13044B   15195.71204598 -.00000097  00000-0  00000+0 0  9996
2 39234   0.0701  88.0537 0007394 180.8481 353.6518  1.00271955  6888
AMOS-4                  
1 39237U 13045A   15194.12336407 -.00000013  00000-0  00000+0 0  9997
2 39237   0.0224  74.8740 0001917  61.0538 264.1624  1.00272567  6860
ASTRA 2E                
1 39285U 13056A   15193.95405868  .00000130  00000-0  10000-3 0  9994
2 39285   0.0423 335.1530 0001995 149.8774 177.2784  1.00272134  6554
SIRIUS FM-6             
1 39360U 13058A   15195.48297340 -.00000037  00000-0  00000+0 0  9996
2 39360   0.0082  22.3015 0000607 265.0149  62.4100  1.00272113  6327
RADUGA-1M 3             
1 39375U 13062A   15195.13785433 -.00000059  00000-0  00000+0 0  9998
2 39375   0.0227 101.3616 0003034  46.1014 263.8359  1.00272449  6117
SES-8                   
1 39460U 13071A   15194.90307803 -.00000289  00000-0  00000+0 0  9993
2 39460   0.0435 253.6632 0002329 217.0854 240.7964  1.00271749  5846
INMARSAT 5-F1           
1 39476U 13073A   15195.58790623  .00000008  00000-0  00000+0 0  9991
2 39476   0.0157  42.5686 0000306 114.7718  49.0386  1.00271889  5914
TKSAT-1 (TUPAC KATARI)  
1 39481U 13075A   15194.38063589 -.00000215  00000-0  00000+0 0  9991
2 39481   0.0082 285.3962 0001752 185.2085 230.1618  1.00273408  5816
EXPRESS-AM5             
1 39487U 13077A   15193.62284828 -.00000300  00000-0  00000+0 0  9991
2 39487   0.0280 203.6041 0000697 128.0216 322.8137  1.00271459  6349
GSAT-14                 
1 39498U 14001A   15193.82331580 -.00000097  00000-0  00000+0 0  9994
2 39498   0.1031 257.6359 0004319 180.5265 222.6281  1.00272425  5541
THAICOM 6               
1 39500U 14002A   15194.10041728 -.00000141  00000-0  00000+0 0  9993
2 39500   0.0795 130.2113 0004478  10.6116 264.4828  1.00271902  5505
TDRS 12                 
1 39504U 14004A   15195.17335051 -.00000285  00000-0  00000+0 0  9991
2 39504   6.6379 337.3422 0003117 194.0920 141.8359  1.00269859  5427
ABS-2                   
1 39508U 14006A   15195.79342462 -.00000106  00000-0  00000+0 0  9991
2 39508   0.0270 300.2183 0001995 181.0350 171.5967  1.00271044  5319
ATHENA-FIDUS            
1 39509U 14006B   15194.08734935  .00000134  00000-0  00000+0 0  9993
2 39509   0.0250  34.3159 0000489  88.4096 237.2793  1.00270532  5486
TURKSAT 4A              
1 39522U 14007A   15195.87325980  .00000126  00000-0  00000+0 0  9994
2 39522   0.0520 266.8990 0001107 300.4260  81.4313  1.00274175  5196
EXPRESS-AT1             
1 39612U 14010A   15194.73414887  .00000058  00000-0  00000+0 0  9991
2 39612   0.0483 213.7441 0000340  37.6408   0.1774  1.00272548  5020
EXPRESS-AT2             
1 39613U 14010B   15193.62409564 -.00000301  00000-0  00000+0 0  9997
2 39613   0.0490 218.2857 0000654  24.3786  52.0219  1.00270154  4840
AMAZONAS 4A             
1 39616U 14011A   15195.82527865 -.00000303  00000-0  00000+0 0  9992
2 39616   0.0243  20.9320 0004144  68.3192  79.2643  1.00272587  4854
ASTRA 5B                
1 39617U 14011B   15195.82545809  .00000134  00000-0  00000+0 0  9992
2 39617   0.0242   4.3585 0002386 126.9819 129.6809  1.00269942  4851
IRNSS-1B                
1 39635U 14017A   15194.90210797  .00000042  00000-0  00000+0 0  9999
2 39635  30.3026 305.7546 0022885 185.7713 179.7482  1.00269220  4788
LUCH 5V                 
1 39727U 14023A   15195.06810427 -.00000284  00000-0  00000+0 0  9991
2 39727   4.0208 300.9535 0002981 185.7401 284.1911  1.00270592522501
KAZSAT 3                
1 39728U 14023B   15194.03009305  .00000041  00000-0  00000+0 0  9993
2 39728   0.0225 256.7575 0000056  81.2166  22.0256  1.00270075  4410
EUTELSAT 3B             
1 39773U 14030A   15195.03525633 -.00000001  00000-0  00000+0 0  9996
2 39773   0.0656  29.1032 0001895  72.2109 206.0355  1.00271042  4191
ASIASAT 8               
1 40107U 14046A   15195.83473373 -.00000353  00000-0  00000+0 0  9997
2 40107   0.0337 292.8959 0001245 189.4877 215.7883  1.00272765  3486
ASIASAT 6               
1 40141U 14052A   15195.80703119 -.00000382  00000-0  00000+0 0  9995
2 40141   0.0168  59.5673 0000299 111.6283 171.5756  1.00271527  3149
OPTUS 10                
1 40146U 14054A   15193.61369433 -.00000094  00000-0  00000+0 0  9996
2 40146   0.0169  46.6830 0002271  70.7732 197.6254  1.00271172  3084
MEASAT-3B               
1 40147U 14054B   15195.78454545 -.00000262  00000-0  10000-3 0  9998
2 40147   0.0273 339.3511 0001223  98.5470 228.3442  1.00272295  3158
LUCH (OLYMP)            
1 40258U 14058A   15195.34747663 -.00000162  00000-0  00000+0 0  9997
2 40258   0.0273 204.4357 0000453 252.0565 302.3366  1.00270825  2926
HIMAWARI 8              
1 40267U 14060A   15195.38716336 -.00000296  00000-0  00000+0 0  9995
2 40267   0.0112 284.9955 0000808 242.1227  44.8283  1.00272716  2842
IRNSS-1C                
1 40269U 14061A   15194.81762895 -.00000178  00000-0  10000-3 0  9990
2 40269   4.4308 268.1556 0018239   4.2507  36.4191  1.00271701  2809
INTELSAT 30 (IS-30)     
1 40271U 14062A   15193.34576310 -.00000170  00000-0  00000+0 0  9993
2 40271   0.0085  15.1422 0001406   2.0105 302.1937  1.00271447  2725
ARSAT 1                 
1 40272U 14062B   15195.31543429 -.00000280  00000-0  00000+0 0  9990
2 40272   0.0483 265.8067 0000776 190.7414 237.0444  1.00271332  2861
EXPRESS-AM6             
1 40277U 14064A   15194.95934329  .00000078  00000-0  00000+0 0  9993
2 40277   0.0219 200.4760 0000194 129.8656 359.4990  1.00273746  2678
GSAT 16                 
1 40332U 14078A   15195.83608147  .00000064  00000-0  00000+0 0  9999
2 40332   0.0912 265.4626 0006728 185.0356 197.9317  1.00274142  2244
DIRECTV 14              
1 40333U 14078B   15195.46843623 -.00000145  00000-0  00000+0 0  9990
2 40333   0.0179  25.5747 0000475 265.8669  69.9479  1.00267724  2230
YAMAL 401               
1 40345U 14082A   15195.78133641 -.00000248  00000-0  00000+0 0  9999
2 40345   0.0400 133.3822 0000454 137.1202  33.0072  1.00269565  2396
ASTRA 2G                
1 40364U 14089A   15195.14689389  .00000130  00000-0  00000+0 0  9991
2 40364   0.0605  58.9853 0004126  20.6500 293.1183  1.00274396  2005
FENGYUN 2G              
1 40367U 14090A   15194.88005509 -.00000348  00000-0  00000+0 0  9994
2 40367   1.8881 276.6603 0003797 261.6265 174.4591  1.00277731  2025
INMARSAT 5-F2           
1 40384U 15005A   15193.14175174 -.00000175  00000-0  00000+0 0  9992
2 40384   0.0334  85.9720 0000657 105.1895 129.3976  1.00270827  1633
EXPRESS-AM7             
1 40505U 15012A   15195.21891020  .00000130  00000-0  00000+0 0  9990
2 40505   0.0075  48.9561 0002333  73.5156 288.0564  1.00270315  1349
THOR 7                  
1 40613U 15022A   15193.07060532 -.00000027  00000-0  00000+0 0  9995
2 40613   0.0126 247.8835 0002698 211.4810 215.0193  1.00272399   783
TURKMENALEM52E/MONACOSAT
1 40617U 15023A   15195.89273686  .00000084  00000-0  00000+0 0  9990
2 40617   0.0212  64.5953 0001583  80.7911 160.4075  1.00270993   835
DIRECTV 15              
1 40663U 15026A   15195.41862275 -.00000293  00000-0  00000+0 0  9993
2 40663   0.0535 242.3201 0002170 296.2545 197.2769  1.00270302   535
SKY MEXICO-1            
1 40664U 15026B   15192.25988483 -.00000253  00000-0  00000+0 0  9999
2 40664   0.0632 152.2962 0003366 268.8705 242.4607  1.00270612   503
